GLOBALSTAR M094         
1 39074U 13005C   24292.98215079 -.00000069  00000+0  19422-3 0  9998
2 39074  51.9947 196.5147 0001045  78.2292 281.8692 12.62263769541913
GLOBALSTAR M096         
1 39075U 13005D   24293.15369674 -.00000077  00000+0  14718-3 0  9992
2 39075  52.0063 244.3181 0000926  68.6437 291.4528 12.62271766541209
GLOBALSTAR M078         
1 39076U 13005E   24293.04778182  .00000040  00000+0  80463-3 0  9998
2 39076  51.9888 329.4777 0001069  28.8804 331.2122 12.62276754539677
GLOBALSTAR M095         
1 39077U 13005F   24293.15377182 -.00000070  00000+0  19102-3 0  9992
2 39077  51.9813 326.4743 0000911  61.8965 298.1994 12.62266487539698
GLOBALSTAR M087         
1 52888U 22064A   24293.29744523 -.00000070  00000+0  10997-3 0  9997
2 52888  51.9740 135.6092 0008877 324.3560  35.6747 13.37590458114135
